NORAD_CAT_ID,OBJECT_NAME,OBJECT_TYPE,EPOCH,MEAN_MOTION,ECCENTRICITY,INCLINATION,RA_OF_ASC_NODE,ARG_OF_PERICENTER,MEAN_ANOMALY,BSTAR,MEAN_MOTION_DOT,MEAN_MOTION_DDOT,TLE_LINE0,TLE_LINE1,TLE_LINE2,SEMIMAJOR_AXIS,PERIOD,APOGEE,PERIGEE,DECAYED
50199.0,STARLINK-3270,PAYLOAD,2024-05-22 11:38:53,15.0884415,9.69e-05,53.2166,304.9361,95.3073,264.803,0.00079495,0.00012388,0.0,0 STARLINK-3270,1 50199U 21125AV  24143.48534225  .00012388  00000-0  79495-3 0  9991,2 50199  53.2166 304.9361 0000969  95.3073 264.8030 15.08844150137185,6917.868,95.437,540.403,539.062,0.0
50199.0,STARLINK-3270,PAYLOAD,2024-05-23 14:40:27,15.0884794,7.59e-05,53.216,299.8821,37.0465,323.0579,0.00076091,0.00011845,0.0,0 STARLINK-3270,1 50199U 21125AV  24144.61142609  .00011845  00000-0  76091-3 0  9994,2 50199  53.2160 299.8821 0000759  37.0465 323.0579 15.08847940137835,6917.856,95.437,540.246,539.196,0.0
50199.0,STARLINK-3270,PAYLOAD,2024-05-23 17:51:13,15.08842128,8.54e-05,53.2164,299.2874,77.5301,282.5786,0.0002777,4.135e-05,0.0,0 STARLINK-3270,1 50199U 21125AV  24144.74390502  .00004135  00000-0  27770-3 0  9999,2 50199  53.2164 299.2874 0000854  77.5301 282.5786 15.08842128137376,6917.874,95.437,540.33,539.148,0.0
50199.0,STARLINK-3270,PAYLOAD,2024-05-24 19:17:22,15.08860326,7.44e-05,53.2151,294.5267,128.1744,231.9315,0.00053873,8.301e-05,0.0,0 STARLINK-3270,1 50199U 21125AV  24145.80373823  .00008301  00000-0  53873-3 0  9996,2 50199  53.2151 294.5267 0000744 128.1744 231.9315 15.08860326137532,6917.818,95.436,540.198,539.169,0.0
50199.0,STARLINK-3270,PAYLOAD,2024-05-25 09:35:51,15.08836985,7.82e-05,53.2157,291.8493,140.7187,219.3862,-3.129e-05,-7.86e-06,0.0,0 STARLINK-3270,1 50199U 21125AV  24146.39990337 -.00000786  00000-0 -31290-4 0  9997,2 50199  53.2157 291.8493 0000782 140.7187 219.3862 15.08836985137623,6917.89,95.438,540.296,539.214,0.0
50199.0,STARLINK-3270,PAYLOAD,2024-05-25 14:22:00,15.08841755,0.0001463,53.2144,290.957,143.5991,216.51,9.5718e-05,1.236e-05,0.0,0 STARLINK-3270,1 50199U 21125AV  24146.59862018  .00001236  00000-0  95718-4 0  9997,2 50199  53.2144 290.9570 0001463 143.5991 216.5100 15.08841755138138,6917.875,95.437,540.752,538.728,0.0
50199.0,STARLINK-3270,PAYLOAD,2024-05-26 14:12:48,15.08841318,9.8e-05,53.2145,286.5002,138.5186,221.588,0.00010958,1.457e-05,0.0,0 STARLINK-3270,1 50199U 21125AV  24147.59222406  .00001457  00000-0  10958-3 0  9996,2 50199  53.2145 286.5002 0000980 138.5186 221.5880 15.08841318138285,6917.876,95.437,540.419,539.063,0.0
50199.0,STARLINK-3270,PAYLOAD,2024-05-26 18:58:57,15.08850021,9.94e-05,53.216,285.6069,132.9496,227.158,4.0344e-05,3.55e-06,0.0,0 STARLINK-3270,1 50199U 21125AV  24147.79093971  .00000355  00000-0  40344-4 0  9990,2 50199  53.2160 285.6069 0000994 132.9496 227.1580 15.08850021137832,6917.85,95.437,540.402,539.027,0.0
50199.0,STARLINK-3270,PAYLOAD,2024-05-27 12:28:12,15.08831948,0.0001155,53.2169,282.3377,108.0203,252.0915,0.00029058,4.339e-05,0.0,0 STARLINK-3270,1 50199U 21125AV  24148.51959120  .00004339  00000-0  29058-3 0  9992,2 50199  53.2169 282.3377 0001155 108.0203 252.0915 15.08831948137945,6917.905,95.438,540.569,538.971,0.0
50199.0,STARLINK-3270,PAYLOAD,2024-05-27 14:03:35,15.08834057,0.000119,53.2174,282.0402,114.3371,245.7746,0.00022984,3.371e-05,0.0,0 STARLINK-3270,1 50199U 21125AV  24148.58582990  .00003371  00000-0  22984-3 0  9992,2 50199  53.2174 282.0402 0001190 114.3371 245.7746 15.08834057138432,6917.899,95.438,540.587,538.94,0.0
50199.0,STARLINK-3270,PAYLOAD,2024-05-27 15:38:59,15.08826091,0.0001042,53.2167,281.7397,108.4419,251.6687,0.00047766,7.319e-05,0.0,0 STARLINK-3270,1 50199U 21125AV  24148.65207475  .00007319  00000-0  47766-3 0  9993,2 50199  53.2167 281.7397 0001042 108.4419 251.6687 15.08826091138446,6917.923,95.438,540.509,539.067,0.0
50199.0,STARLINK-3270,PAYLOAD,2024-05-28 12:18:58,15.08847811,8.99e-05,53.2177,277.879,105.6285,254.4806,9.2567e-05,1.186e-05,0.0,0 STARLINK-3270,1 50199U 21125AV  24149.51318201  .00001186  00000-0  92567-4 0  9995,2 50199  53.2177 277.8790 0000899 105.6285 254.4806 15.08847811138097,6917.857,95.437,540.343,539.1,0.0
50199.0,STARLINK-3270,PAYLOAD,2024-05-28 13:54:22,15.08849256,9.41e-05,53.2171,277.5823,96.411,263.699,0.00012439,1.693e-05,0.0,0 STARLINK-3270,1 50199U 21125AV  24149.57942151  .00001693  00000-0  12439-3 0  9990,2 50199  53.2171 277.5823 0000941  96.4110 263.6990 15.08849256138582,6917.852,95.437,540.368,539.066,0.0
50199.0,STARLINK-3270,PAYLOAD,2024-05-28 15:29:45,15.08851122,9.68e-05,53.2174,277.2851,96.8148,263.2954,0.00015282,2.146e-05,0.0,0 STARLINK-3270,1 50199U 21125AV  24149.64566040  .00002146  00000-0  15282-3 0  9990,2 50199  53.2174 277.2851 0000968  96.8148 263.2954 15.08851122138599,6917.846,95.437,540.381,539.042,0.0
50199.0,STARLINK-3270,PAYLOAD,2024-05-29 13:45:09,15.0883745,0.0001027,53.2172,273.1217,103.1915,256.9192,-4.427e-06,-3.58e-06,0.0,0 STARLINK-3270,1 50199U 21125AV  24150.57302729 -.00000358  00000-0 -44270-5 0  9992,2 50199  53.2172 273.1217 0001027 103.1915 256.9192 15.08837450138253,6917.888,95.438,540.464,539.043,0.0
50199.0,STARLINK-3270,PAYLOAD,2024-05-29 15:20:32,15.08836708,9.74e-05,53.2171,272.8225,87.9241,272.1862,-1.684e-05,-5.56e-06,0.0,0 STARLINK-3270,1 50199U 21125AV  24150.63926768 -.00000556  00000-0 -16840-4 0  9995,2 50199  53.2171 272.8225 0000974  87.9241 272.1862 15.08836708138741,6917.89,95.438,540.429,539.082,0.0
50199.0,STARLINK-3270,PAYLOAD,2024-05-30 13:35:56,15.08846428,8.83e-05,53.2168,268.6615,94.1144,265.9949,6.222e-05,7.03e-06,0.0,0 STARLINK-3270,1 50199U 21125AV  24151.56662677  .00000703  00000-0  62220-4 0  9999,2 50199  53.2168 268.6615 0000883  94.1144 265.9949 15.08846428138885,6917.861,95.437,540.337,539.115,0.0
50199.0,STARLINK-3270,PAYLOAD,2024-05-30 15:11:19,15.08849505,8.45e-05,53.2171,268.3636,81.947,278.1618,9.8854e-05,1.286e-05,0.0,0 STARLINK-3270,1 50199U 21125AV  24151.63286427  .00001286  00000-0  98854-4 0  9991,2 50199  53.2171 268.3636 0000845  81.9470 278.1618 15.08849505138410,6917.851,95.437,540.301,539.132,0.0
50199.0,STARLINK-3270,PAYLOAD,2024-05-31 13:26:43,15.08843031,0.0001505,53.2171,264.2015,53.9275,306.1856,0.00023143,3.397e-05,0.0,0 STARLINK-3270,1 50199U 21125AV  24152.56022921  .00003397  00000-0  23143-3 0  9994,2 50199  53.2171 264.2015 0001505  53.9275 306.1856 15.08843031138551,6917.871,95.437,540.777,538.695,0.0
50199.0,STARLINK-3270,PAYLOAD,2024-05-31 16:37:29,15.08852146,0.0001034,53.2167,263.6049,81.3436,278.7673,0.00030482,4.568e-05,0.0,0 STARLINK-3270,1 50199U 21125AV  24152.69270238  .00004568  00000-0  30482-3 0  9999,2 50199  53.2167 263.6049 0001034  81.3436 278.7673 15.08852146138577,6917.843,95.437,540.424,538.993,0.0
50199.0,STARLINK-3270,PAYLOAD,2024-06-01 00:34:25,15.08835484,0.0001306,53.2156,262.1182,81.7225,278.3915,3.9062e-05,3.34e-06,0.0,0 STARLINK-3270,1 50199U 21125AV  24153.02391182  .00000334  00000-0  39062-4 0  9990,2 50199  53.2156 262.1182 0001306  81.7225 278.3915 15.08835484138626,6917.894,95.438,540.663,538.856,0.0
50199.0,STARLINK-3270,PAYLOAD,2024-06-01 13:17:31,15.08830679,0.000121,53.2155,259.7393,88.158,271.9551,-4.26e-05,-9.66e-06,0.0,0 STARLINK-3270,1 50199U 21125AV  24153.55383973 -.00000966  00000-0 -42600-4 0  9992,2 50199  53.2155 259.7393 0001210  88.1580 271.9551 15.08830679138705,6917.909,95.438,540.611,538.937,0.0
50199.0,STARLINK-3270,PAYLOAD,2024-06-02 00:25:13,15.08840864,0.0001255,53.2158,257.6577,75.5679,284.5453,0.00011767,1.585e-05,0.0,0 STARLINK-3270,1 50199U 21125AV  24154.01751418  .00001585  00000-0  11767-3 0  9992,2 50199  53.2158 257.6577 0001255  75.5679 284.5453 15.08840864138772,6917.878,95.438,540.611,538.875,0.0
50199.0,STARLINK-3270,PAYLOAD,2024-06-02 13:08:17,15.08851776,0.0001164,53.216,255.2783,90.0368,270.0757,0.00035343,5.343e-05,0.0,0 STARLINK-3270,1 50199U 21125AV  24154.54742989  .00005343  00000-0  35343-3 0  9995,2 50199  53.2160 255.2783 0001164  90.0368 270.0757 15.08851776139338,6917.844,95.437,540.515,538.904,0.0
50199.0,STARLINK-3270,PAYLOAD,2024-06-03 12:59:05,15.08849148,0.0001492,53.2162,250.8166,98.1142,262.002,0.00031679,4.759e-05,0.0,0 STARLINK-3270,1 50199U 21125AV  24155.54103074  .00004759  00000-0  31679-3 0  9990,2 50199  53.2162 250.8166 0001492  98.1142 262.0020 15.08849148139007,6917.852,95.437,540.75,538.685,0.0
50199.0,STARLINK-3270,PAYLOAD,2024-06-03 16:09:51,15.08850544,0.0001528,53.2163,250.2216,101.6259,258.4904,0.0002576,3.815e-05,0.0,0 STARLINK-3270,1 50199U 21125AV  24155.67350880  .00003815  00000-0  25760-3 0  9999,2 50199  53.2163 250.2216 0001528 101.6259 258.4904 15.08850544139504,6917.848,95.437,540.77,538.656,0.0
50199.0,STARLINK-3270,PAYLOAD,2024-06-04 12:49:51,15.08860814,0.0001388,53.2139,246.3571,91.4612,268.6539,0.00034844,5.265e-05,0.0,0 STARLINK-3270,1 50199U 21125AV  24156.53462109  .00005265  00000-0  34844-3 0  9997,2 50199  53.2139 246.3571 0001388  91.4612 268.6539 15.08860814139632,6917.817,95.436,540.642,538.722,0.0
50199.0,STARLINK-3270,PAYLOAD,2024-06-05 12:40:39,15.0883029,0.0001149,53.2146,241.8958,97.6776,262.4347,-9.2806e-05,-1.764e-05,0.0,0 STARLINK-3270,1 50199U 21125AV  24157.52823459 -.00001764  00000-0 -92806-4 0  9991,2 50199  53.2146 241.8958 0001149  97.6776 262.4347 15.08830290139301,6917.91,95.438,540.57,538.98,0.0
50199.0,STARLINK-3270,PAYLOAD,2024-06-05 22:12:58,15.0883265,0.0001207,53.2163,240.1135,99.1674,260.9454,-8.1764e-06,-4.18e-06,0.0,0 STARLINK-3270,1 50199U 21125AV  24157.92567582 -.00000418  00000-0 -81764-5 0  9994,2 50199  53.2163 240.1135 0001207  99.1674 260.9454 15.08832650139841,6917.903,95.438,540.603,538.933,0.0
50199.0,STARLINK-3270,PAYLOAD,2024-06-06 12:31:26,15.08841431,0.0001291,53.2165,237.4387,104.6223,255.4912,0.00021758,3.177e-05,0.0,0 STARLINK-3270,1 50199U 21125AV  24158.52183685  .00003177  00000-0  21758-3 0  9997,2 50199  53.2165 237.4387 0001291 104.6223 255.4912 15.08841431139458,6917.876,95.437,540.634,538.848,0.0
